start=new Date('2022-06-02T00:00:00.000Z').valueOf();
sats=[{"SITE":"AFETR","DECAY_DATE":null,"REF_FRAME":"TEME","EPHEMERIS_TYPE":"0","EPOCH":"2022-06-01T20:00:01.000224","OBJECT_NAME":"STARLINK-3864","LAUNCH_DATE":"2022-05-06","OBJECT_ID":"2022-049T","REV_AT_EPOCH":"130","CENTER_NAME":"EARTH","MEAN_MOTION_DOT":"0.00590521","RA_OF_ASC_NODE":"135.5143","TIME_SYSTEM":"UTC","RCS_SIZE":"LARGE","INCLINATION":"53.2170","FILE":"3476255","MEAN_MOTION":"15.72834185","ECCENTRICITY":"0.00021860","TLE_LINE1":"1 52468U 22049T   22152.83334491  .00590521  00000-0  39850-2 0  9998","MEAN_MOTION_DDOT":"0.0000000000000","SEMIMAJOR_AXIS":"6728.938","GP_ID":"205128478","COUNTRY_CODE":"US","NORAD_CAT_ID":"52468","ELEMENT_SET_NO":"999","MEAN_ELEMENT_THEORY":"SGP4","MEAN_ANOMALY":"353.0117","OBJECT_TYPE":"PAYLOAD","ARG_OF_PERICENTER":"34.5481","TLE_LINE2":"2 52468  53.2170 135.5143 0002186  34.5481 353.0117 15.72834185  1307","PERIOD":"91.554","BSTAR":"0.00398500000000","PERIAPSIS":"349.332","APOAPSIS":"352.274","CLASSIFICATION_TYPE":"U"},{"RA_OF_ASC_NODE":"135.5151","CENTER_NAME":"EARTH","MEAN_MOTION_DOT":"0.00085719","FILE":"3476255","MEAN_MOTION":"15.73155590","INCLINATION":"53.2154","RCS_SIZE":"LARGE","TIME_SYSTEM":"UTC","DECAY_DATE":null,"SITE":"AFETR","REV_AT_EPOCH":"130","OBJECT_ID":"2022-049U","LAUNCH_DATE":"2022-05-06","OBJECT_NAME":"STARLINK-3828","EPOCH":"2022-06-01T20:00:01.000224","EPHEMERIS_TYPE":"0","REF_FRAME":"TEME","TLE_LINE2":"2 52469  53.2154 135.5151 0002087  25.1175   1.1907 15.73155590  1300","ARG_OF_PERICENTER":"25.1175","OBJECT_TYPE":"PAYLOAD","APOAPSIS":"351.291","CLASSIFICATION_TYPE":"U","PERIAPSIS":"348.483","BSTAR":"0.00061008000000","PERIOD":"91.536","GP_ID":"205128105","SEMIMAJOR_AXIS":"6728.022","ECCENTRICITY":"0.00020870","TLE_LINE1":"1 52469U 22049U   22152.83334491  .00085719  00000-0  61008-3 0  9998","MEAN_MOTION_DDOT":"0.0000000000000","MEAN_ANOMALY":"1.1907","MEAN_ELEMENT_THEORY":"SGP4","ELEMENT_SET_NO":"999","NORAD_CAT_ID":"52469","COUNTRY_CODE":"US"},{"SITE":"AFETR","DECAY_DATE":null,"OBJECT_NAME":"STARLINK-3859","EPHEMERIS_TYPE":"0","REF_FRAME":"TEME","EPOCH":"2022-06-01T20:00:01.000224","LAUNCH_DATE":"2022-05-06","REV_AT_EPOCH":"130","OBJECT_ID":"2022-049V","CENTER_NAME":"EARTH","MEAN_MOTION_DOT":"0.00030360","RA_OF_ASC_NODE":"135.5103","TIME_SYSTEM":"UTC","RCS_SIZE":"LARGE","INCLINATION":"53.2155","MEAN_MOTION":"15.73192997","FILE":"3476255","TLE_LINE1":"1 52470U 22049V   22152.83334491  .00030360  00000-0  22001-3 0  9992","ECCENTRICITY":"0.00019990","MEAN_MOTION_DDOT":"0.0000000000000","GP_ID":"205127973","SEMIMAJOR_AXIS":"6727.915","COUNTRY_CODE":"US","MEAN_ELEMENT_THEORY":"SGP4","MEAN_ANOMALY":"5.5256","NORAD_CAT_ID":"52470","ELEMENT_SET_NO":"999","OBJECT_TYPE":"PAYLOAD","TLE_LINE2":"2 52470  53.2155 135.5103 0001999  23.2801   5.5256 15.73192997  1303","ARG_OF_PERICENTER":"23.2801","BSTAR":"0.00022001000000","PERIOD":"91.534","APOAPSIS":"351.125","CLASSIFICATION_TYPE":"U","PERIAPSIS":"348.435"},{"EPHEMERIS_TYPE":"0","REF_FRAME":"TEME","EPOCH":"2022-06-01T20:00:01.000224","OBJECT_NAME":"STARLINK-3862","LAUNCH_DATE":"2022-05-06","REV_AT_EPOCH":"130","OBJECT_ID":"2022-049W","SITE":"AFETR","DECAY_DATE":null,"RCS_SIZE":"LARGE","TIME_SYSTEM":"UTC","INCLINATION":"53.2160","MEAN_MOTION":"15.73202767","FILE":"3476255","MEAN_MOTION_DOT":"-0.00020438","CENTER_NAME":"EARTH","RA_OF_ASC_NODE":"135.5155","COUNTRY_CODE":"US","NORAD_CAT_ID":"52471","ELEMENT_SET_NO":"999","MEAN_ELEMENT_THEORY":"SGP4","MEAN_ANOMALY":"2.8059","TLE_LINE1":"1 52471U 22049W   22152.83334491 -.00020438  00000-0 -14152-3 0  9998","ECCENTRICITY":"0.00019810","MEAN_MOTION_DDOT":"0.0000000000000","SEMIMAJOR_AXIS":"6727.887","GP_ID":"205128211","PERIOD":"91.533","BSTAR":"-0.00014152000000","PERIAPSIS":"348.419","APOAPSIS":"351.085","CLASSIFICATION_TYPE":"U","OBJECT_TYPE":"PAYLOAD","ARG_OF_PERICENTER":"24.1032","TLE_LINE2":"2 52471  53.2160 135.5155 0001981  24.1032   2.8059 15.73202767  1302"},{"DECAY_DATE":null,"SITE":"AFETR","REV_AT_EPOCH":"130","OBJECT_ID":"2022-049X","LAUNCH_DATE":"2022-05-06","EPOCH":"2022-06-01T20:00:01.000224","EPHEMERIS_TYPE":"0","REF_FRAME":"TEME","OBJECT_NAME":"STARLINK-3881","RA_OF_ASC_NODE":"135.5064","CENTER_NAME":"EARTH","MEAN_MOTION_DOT":"-0.00010419","FILE":"3476255","MEAN_MOTION":"15.73211010","INCLINATION":"53.2152","TIME_SYSTEM":"UTC","RCS_SIZE":"LARGE","GP_ID":"205128397","SEMIMAJOR_AXIS":"6727.864","TLE_LINE1":"1 52472U 22049X   22152.83334491 -.00010419  00000-0 -69861-4 0  9995","ECCENTRICITY":"0.00019520","MEAN_MOTION_DDOT":"0.0000000000000","ELEMENT_SET_NO":"999","NORAD_CAT_ID":"52472","MEAN_ANOMALY":"7.2100","MEAN_ELEMENT_THEORY":"SGP4","COUNTRY_CODE":"US","ARG_OF_PERICENTER":"22.8656","TLE_LINE2":"2 52472  53.2152 135.5064 0001952  22.8656   7.2100 15.73211010  1305","OBJECT_TYPE":"PAYLOAD","PERIAPSIS":"348.416","APOAPSIS":"351.042","CLASSIFICATION_TYPE":"U","PERIOD":"91.533","BSTAR":"-0.00006986100000"},{"INCLINATION":"53.2159","TIME_SYSTEM":"UTC","RCS_SIZE":"LARGE","FILE":"3476255","MEAN_MOTION":"15.73150444","CENTER_NAME":"EARTH","MEAN_MOTION_DOT":"0.00084826","RA_OF_ASC_NODE":"135.5124","OBJECT_NAME":"STARLINK-3879","EPOCH":"2022-06-01T20:00:01.000224","EPHEMERIS_TYPE":"0","REF_FRAME":"TEME","REV_AT_EPOCH":"130","OBJECT_ID":"2022-049Y","LAUNCH_DATE":"2022-05-06","SITE":"AFETR","DECAY_DATE":null,"BSTAR":"0.00060397000000","PERIOD":"91.536","APOAPSIS":"351.300","CLASSIFICATION_TYPE":"U","PERIAPSIS":"348.503","OBJECT_TYPE":"PAYLOAD","TLE_LINE2":"2 52473  53.2159 135.5124 0002079  29.7012 358.4978 15.73150444  1300","ARG_OF_PERICENTER":"29.7012","COUNTRY_CODE":"US","MEAN_ANOMALY":"358.4978","MEAN_ELEMENT_THEORY":"SGP4","ELEMENT_SET_NO":"999","NORAD_CAT_ID":"52473","TLE_LINE1":"1 52473U 22049Y   22152.83334491  .00084826  00000-0  60397-3 0  9991","MEAN_MOTION_DDOT":"0.0000000000000","ECCENTRICITY":"0.00020790","GP_ID":"205127763","SEMIMAJOR_AXIS":"6728.036"},{"MEAN_MOTION":"15.73200349","FILE":"3476255","INCLINATION":"53.2150","TIME_SYSTEM":"UTC","RCS_SIZE":"LARGE","RA_OF_ASC_NODE":"135.5035","CENTER_NAME":"EARTH","MEAN_MOTION_DOT":"-0.00016224","REV_AT_EPOCH":"130","OBJECT_ID":"2022-049Z","LAUNCH_DATE":"2022-05-06","OBJECT_NAME":"STARLINK-3855","EPOCH":"2022-06-01T20:00:01.000224","REF_FRAME":"TEME","EPHEMERIS_TYPE":"0","DECAY_DATE":null,"SITE":"AFETR","APOAPSIS":"351.159","CLASSIFICATION_TYPE":"U","PERIAPSIS":"348.359","BSTAR":"-0.00011138000000","PERIOD":"91.533","TLE_LINE2":"2 52474  53.2150 135.5035 0002081  22.5422   8.7854 15.73200349  1300","ARG_OF_PERICENTER":"22.5422","OBJECT_TYPE":"PAYLOAD","MEAN_ANOMALY":"8.7854","MEAN_ELEMENT_THEORY":"SGP4","ELEMENT_SET_NO":"999","NORAD_CAT_ID":"52474","COUNTRY_CODE":"US","SEMIMAJOR_AXIS":"6727.894","GP_ID":"205128316","ECCENTRICITY":"0.00020810","TLE_LINE1":"1 52474U 22049Z   22152.83334491 -.00016224  00000-0 -11138-3 0  9990","MEAN_MOTION_DDOT":"0.0000000000000"},{"SITE":"AFETR","DECAY_DATE":null,"OBJECT_NAME":"STARLINK-3882","REF_FRAME":"TEME","EPHEMERIS_TYPE":"0","EPOCH":"2022-06-01T20:00:01.000224","LAUNCH_DATE":"2022-05-06","REV_AT_EPOCH":"130","OBJECT_ID":"2022-049AA","MEAN_MOTION_DOT":"-0.00027500","CENTER_NAME":"EARTH","RA_OF_ASC_NODE":"135.5086","RCS_SIZE":"LARGE","TIME_SYSTEM":"UTC","INCLINATION":"53.2154","FILE":"3476255","MEAN_MOTION":"15.73225733","TLE_LINE1":"1 52475U 22049AA  22152.83334491 -.00027500  00000-0 -19192-3 0  9998","MEAN_MOTION_DDOT":"0.0000000000000","ECCENTRICITY":"0.00020880","SEMIMAJOR_AXIS":"6727.822","GP_ID":"205127869","COUNTRY_CODE":"US","MEAN_ELEMENT_THEORY":"SGP4","MEAN_ANOMALY":"10.4128","NORAD_CAT_ID":"52475","ELEMENT_SET_NO":"999","OBJECT_TYPE":"PAYLOAD","TLE_LINE2":"2 52475  53.2154 135.5086 0002088  18.9967  10.4128 15.73225733  1309","ARG_OF_PERICENTER":"18.9967","BSTAR":"-0.00019192000000","PERIOD":"91.532","APOAPSIS":"351.092","CLASSIFICATION_TYPE":"U","PERIAPSIS":"348.282"},{"DECAY_DATE":null,"SITE":"AFETR","OBJECT_ID":"2022-049AB","REV_AT_EPOCH":"130","LAUNCH_DATE":"2022-05-06","OBJECT_NAME":"STARLINK-3835","EPOCH":"2022-06-01T20:00:01.000224","REF_FRAME":"TEME","EPHEMERIS_TYPE":"0","RA_OF_ASC_NODE":"135.5016","MEAN_MOTION_DOT":"0.00091135","CENTER_NAME":"EARTH","MEAN_MOTION":"15.73178756","FILE":"3476255","INCLINATION":"53.2152","RCS_SIZE":"LARGE","TIME_SYSTEM":"UTC","SEMIMAJOR_AXIS":"6727.956","GP_ID":"205128479","TLE_LINE1":"1 52476U 22049AB  22152.83334491  .00091135  00000-0  64730-3 0  9990","MEAN_MOTION_DDOT":"0.0000000000000","ECCENTRICITY":"0.00020390","MEAN_ANOMALY":"13.3435","MEAN_ELEMENT_THEORY":"SGP4","ELEMENT_SET_NO":"999","NORAD_CAT_ID":"52476","COUNTRY_CODE":"US","TLE_LINE2":"2 52476  53.2152 135.5016 0002039  19.2598  13.3435 15.73178756  1306","ARG_OF_PERICENTER":"19.2598","OBJECT_TYPE":"PAYLOAD","APOAPSIS":"351.193","CLASSIFICATION_TYPE":"U","PERIAPSIS":"348.449","BSTAR":"0.00064730000000","PERIOD":"91.534"},{"ARG_OF_PERICENTER":"19.8474","TLE_LINE2":"2 52477  53.2155 135.5065 0002146  19.8474  10.8539 15.73189068  1307","OBJECT_TYPE":"PAYLOAD","PERIAPSIS":"348.348","APOAPSIS":"351.235","CLASSIFICATION_TYPE":"U","PERIOD":"91.534","BSTAR":"0.00010322000000","GP_ID":"205128106","SEMIMAJOR_AXIS":"6727.926","TLE_LINE1":"1 52477U 22049AC  22152.83334491  .00013883  00000-0  10322-3 0  9993","ECCENTRICITY":"0.00021460","MEAN_MOTION_DDOT":"0.0000000000000","ELEMENT_SET_NO":"999","NORAD_CAT_ID":"52477","MEAN_ANOMALY":"10.8539","MEAN_ELEMENT_THEORY":"SGP4","COUNTRY_CODE":"US","RA_OF_ASC_NODE":"135.5065","CENTER_NAME":"EARTH","MEAN_MOTION_DOT":"0.00013883","FILE":"3476255","MEAN_MOTION":"15.73189068","INCLINATION":"53.2155","TIME_SYSTEM":"UTC","RCS_SIZE":"LARGE","DECAY_DATE":null,"SITE":"AFETR","REV_AT_EPOCH":"130","OBJECT_ID":"2022-049AC","LAUNCH_DATE":"2022-05-06","EPOCH":"2022-06-01T20:00:01.000224","REF_FRAME":"TEME","EPHEMERIS_TYPE":"0","OBJECT_NAME":"STARLINK-3860"}];
